{
  "type": "FeatureCollection",
  "features": [
    {
      "type": "Feature",
      "properties": {
        "norad_id": 43719,
        "name": "HYSIS",
        "group": "resource",
        "lat": -75.36900528480088,
        "lon": -169.23760233759722,
        "alt_km": 642.0973724281193,
        "timestamp": "2025-12-06T09:34:16.575624+00:00",
        "meta_object_name": "HYSIS",
        "meta_object_id": "2018-096A",
        "meta_epoch": "2025-12-05T22:39:52.436160",
        "meta_mean_motion": 14.78615667,
        "meta_eccentricity": 0.0001603,
        "meta_inclination": 98.0106,
        "meta_ra_of_asc_node": 42.9554,
        "meta_arg_of_pericenter": 63.9211,
        "meta_mean_anomaly": 296.2165,
        "meta_ephemeris_type": 0,
        "meta_classification_type": "U",
        "meta_norad_cat_id": 43719,
        "meta_element_set_no": 999,
        "meta_rev_at_epoch": 37886,
        "meta_bstar": 0.00036108996,
        "meta_mean_motion_dot": 2.592e-05,
        "meta_mean_motion_ddot": 0,
        "tle_line1": "1 43719U 18096A   25339.94435690  .00002592  00000+0  36109-3 0  9999",
        "tle_line2": "2 43719  98.0106  42.9554 0001603  63.9211 296.2165 14.78615667378865"
      },
      "geometry": {
        "type": "Point",
        "coordinates": [
          -169.23760233759722,
          -75.36900528480088
        ]
      }
    },
    {
      "type": "Feature",
      "properties": {
        "norad_id": 43783,
        "name": "KAZSTSAT",
        "group": "resource",
        "lat": 21.918097346963034,
        "lon": 12.836167987715795,
        "alt_km": 564.9060195411148,
        "timestamp": "2025-12-06T09:34:16.575634+00:00",
        "meta_object_name": "KAZSTSAT",
        "meta_object_id": "2018-099AB",
        "meta_epoch": "2025-12-05T22:15:39.439584",
        "meta_mean_motion": 14.99318025,
        "meta_eccentricity": 0.0006317,
        "meta_inclination": 97.4553,
        "meta_ra_of_asc_node": 15.4054,
        "meta_arg_of_pericenter": 356.8778,
        "meta_mean_anomaly": 3.2405,
        "meta_ephemeris_type": 0,
        "meta_classification_type": "U",
        "meta_norad_cat_id": 43783,
        "meta_element_set_no": 999,
        "meta_rev_at_epoch": 38234,
        "meta_bstar": 0.00027585766,
        "meta_mean_motion_dot": 3.315e-05,
        "meta_mean_motion_ddot": 0,
        "tle_line1": "1 43783U 18099AB  25339.92753981  .00003315  00000+0  27586-3 0  9990",
        "tle_line2": "2 43783  97.4553  15.4054 0006317 356.8778   3.2405 14.99318025382346"
      },
      "geometry": {
        "type": "Point",
        "coordinates": [
          12.836167987715795,
          21.918097346963034
        ]
      }
    },
    {
      "type": "Feature",
      "properties": {
        "norad_id": 43831,
        "name": "SAUDISAT 5A",
        "group": "resource",
        "lat": -16.558005391417048,
        "lon": -141.48227309244405,
        "alt_km": 495.7002301314569,
        "timestamp": "2025-12-06T09:34:16.575644+00:00",
        "meta_object_name": "SAUDISAT 5A",
        "meta_object_id": "2018-102A",
        "meta_epoch": "2025-12-05T23:16:04.771488",
        "meta_mean_motion": 15.25530196,
        "meta_eccentricity": 0.00118498,
        "meta_inclination": 97.3364,
        "meta_ra_of_asc_node": 40.292,
        "meta_arg_of_pericenter": 96.9807,
        "meta_mean_anomaly": 263.278,
        "meta_ephemeris_type": 0,
        "meta_classification_type": "U",
        "meta_norad_cat_id": 43831,
        "meta_element_set_no": 999,
        "meta_rev_at_epoch": 38619,
        "meta_bstar": 0.00038065769,
        "meta_mean_motion_dot": 9.602e-05,
        "meta_mean_motion_ddot": 0,
        "tle_line1": "1 43831U 18102A   25339.96949967  .00009602  00000+0  38066-3 0  9994",
        "tle_line2": "2 43831  97.3364  40.2920 0011849  96.9807 263.2780 15.25530196386194"
      },
      "geometry": {
        "type": "Point",
        "coordinates": [
          -141.48227309244405,
          -16.558005391417048
        ]
      }
    },
    {
      "type": "Feature",
      "properties": {
        "norad_id": 43833,
        "name": "SAUDISAT 5B",
        "group": "resource",
        "lat": -59.93292835491321,
        "lon": -149.43564151146944,
        "alt_km": 502.12968600034856,
        "timestamp": "2025-12-06T09:34:16.575653+00:00",
        "meta_object_name": "SAUDISAT 5B",
        "meta_object_id": "2018-102C",
        "meta_epoch": "2025-12-05T23:04:38.374464",
        "meta_mean_motion": 15.25885332,
        "meta_eccentricity": 0.001252,
        "meta_inclination": 97.3457,
        "meta_ra_of_asc_node": 43.0106,
        "meta_arg_of_pericenter": 99.415,
        "meta_mean_anomaly": 260.8504,
        "meta_ephemeris_type": 0,
        "meta_classification_type": "U",
        "meta_norad_cat_id": 43833,
        "meta_element_set_no": 999,
        "meta_rev_at_epoch": 38630,
        "meta_bstar": 0.00036970083,
        "meta_mean_motion_dot": 9.425e-05,
        "meta_mean_motion_ddot": 0,
        "tle_line1": "1 43833U 18102C   25339.96155526  .00009425  00000+0  36970-3 0  9991",
        "tle_line2": "2 43833  97.3457  43.0106 0012520  99.4150 260.8504 15.25885332386307"
      },
      "geometry": {
        "type": "Point",
        "coordinates": [
          -149.43564151146944,
          -59.93292835491321
        ]
      }
    },
    {
      "type": "Feature",
      "properties": {
        "norad_id": 44622,
        "name": "GAOFEN-10R",
        "group": "resource",
        "lat": 81.63761297300293,
        "lon": -145.85938848563612,
        "alt_km": 608.1315463489109,
        "timestamp": "2025-12-06T09:34:16.575664+00:00",
        "meta_object_name": "GAOFEN-10R",
        "meta_object_id": "2019-066A",
        "meta_epoch": "2025-12-05T23:27:37.479168",
        "meta_mean_motion": 14.82754856,
        "meta_eccentricity": 0.00082,
        "meta_inclination": 98.027,
        "meta_ra_of_asc_node": 287.4576,
        "meta_arg_of_pericenter": 60.5507,
        "meta_mean_anomaly": 299.6523,
        "meta_ephemeris_type": 0,
        "meta_classification_type": "U",
        "meta_norad_cat_id": 44622,
        "meta_element_set_no": 999,
        "meta_rev_at_epoch": 33374,
        "meta_bstar": 0.00039228751,
        "meta_mean_motion_dot": 3.117e-05,
        "meta_mean_motion_ddot": 0,
        "tle_line1": "1 44622U 19066A   25339.97751712  .00003117  00000+0  39229-3 0  9990",
        "tle_line2": "2 44622  98.0270 287.4576 0008200  60.5507 299.6523 14.82754856333744"
      },
      "geometry": {
        "type": "Point",
        "coordinates": [
          -145.85938848563612,
          81.63761297300293
        ]
      }
    },
    {
      "type": "Feature",
      "properties": {
        "norad_id": 44804,
        "name": "CARTOSAT-3",
        "group": "resource",
        "lat": 40.526461702980406,
        "lon": -133.50646374816662,
        "alt_km": 496.7594157502499,
        "timestamp": "2025-12-06T09:34:16.575673+00:00",
        "meta_object_name": "CARTOSAT-3",
        "meta_object_id": "2019-081A",
        "meta_epoch": "2025-12-05T23:28:42.543552",
        "meta_mean_motion": 15.19282277,
        "meta_eccentricity": 0.00139027,
        "meta_inclination": 97.4594,
        "meta_ra_of_asc_node": 39.6471,
        "meta_arg_of_pericenter": 108.2498,
        "meta_mean_anomaly": 252.0251,
        "meta_ephemeris_type": 0,
        "meta_classification_type": "U",
        "meta_norad_cat_id": 44804,
        "meta_element_set_no": 999,
        "meta_rev_at_epoch": 33413,
        "meta_bstar": 0.00037497964,
        "meta_mean_motion_dot": 7.864e-05,
        "meta_mean_motion_ddot": 0,
        "tle_line1": "1 44804U 19081A   25339.97827018  .00007864  00000+0  37498-3 0  9991",
        "tle_line2": "2 44804  97.4594  39.6471 0013902 108.2498 252.0251 15.19282277334132"
      },
      "geometry": {
        "type": "Point",
        "coordinates": [
          -133.50646374816662,
          40.526461702980406
        ]
      }
    },
    {
      "type": "Feature",
      "properties": {
        "norad_id": 44819,
        "name": "GAOFEN-12 01",
        "group": "resource",
        "lat": 42.607263870452485,
        "lon": -20.40858560030871,
        "alt_km": 624.2794383478595,
        "timestamp": "2025-12-06T09:34:16.575683+00:00",
        "meta_object_name": "GAOFEN-12 01",
        "meta_object_id": "2019-082A",
        "meta_epoch": "2025-12-05T23:38:44.921760",
        "meta_mean_motion": 14.80645042,
        "meta_eccentricity": 0.00011945,
        "meta_inclination": 97.8125,
        "meta_ra_of_asc_node": 346.4436,
        "meta_arg_of_pericenter": 280.2736,
        "meta_mean_anomaly": 79.8342,
        "meta_ephemeris_type": 0,
        "meta_classification_type": "U",
        "meta_norad_cat_id": 44819,
        "meta_element_set_no": 999,
        "meta_rev_at_epoch": 32550,
        "meta_bstar": 0.00013093055,
        "meta_mean_motion_dot": 9.55e-06,
        "meta_mean_motion_ddot": 0,
        "tle_line1": "1 44819U 19082A   25339.98524215  .00000955  00000+0  13093-3 0  9991",
        "tle_line2": "2 44819  97.8125 346.4436 0001194 280.2736  79.8342 14.80645042325505"
      },
      "geometry": {
        "type": "Point",
        "coordinates": [
          -20.40858560030871,
          42.607263870452485
        ]
      }
    }
  ]
}